{
  "norad_id": 56781,
  "name": "STARLINK-5989",
  "history": [
    {
      "epoch": "2026-03-28T21:14:31.501248Z",
      "apogee_km": 573.4527464532375,
      "perigee_km": 570.6865642044158,
      "latitude_deg": -9.887355055938811e-06,
      "longitude_deg": 151.20372392235888,
      "height_km": 574.6827479512441,
      "semi_major_axis_km": 6950.206655328826,
      "eccentricity": 0.000199,
      "inclination_deg": 69.9991,
      "raan_deg": 296.1341,
      "arg_perigee_deg": 262.2393,
      "mean_anomaly_deg": 97.854,
      "mean_motion_rev_day": 14.98325549
    },
    {
      "epoch": "2026-03-28T21:14:31.502112Z",
      "apogee_km": 573.4528854573691,
      "perigee_km": 570.6864252002824,
      "latitude_deg": -7.74053985756438e-06,
      "longitude_deg": 151.2037210896494,
      "height_km": 574.682766724382,
      "semi_major_axis_km": 6950.206655328826,
      "eccentricity": 0.00019902,
      "inclination_deg": 69.9991,
      "raan_deg": 296.1341,
      "arg_perigee_deg": 262.2393,
      "mean_anomaly_deg": 97.854,
      "mean_motion_rev_day": 14.98325549
    },
    {
      "epoch": "2026-03-30T00:28:48.206496Z",
      "apogee_km": 573.7075755868336,
      "perigee_km": 570.3639864653369,
      "latitude_deg": 5.869121584650936e-05,
      "longitude_deg": 98.65132020550887,
      "height_km": 574.4784491386464,
      "semi_major_axis_km": 6950.1727810260845,
      "eccentricity": 0.00024054,
      "inclination_deg": 69.9976,
      "raan_deg": 293.2699,
      "arg_perigee_deg": 269.4519,
      "mean_anomaly_deg": 90.6365,
      "mean_motion_rev_day": 14.98336503
    },
    {
      "epoch": "2026-03-30T13:17:52.909440Z",
      "apogee_km": 573.7653151145269,
      "perigee_km": 570.4161393773211,
      "latitude_deg": 5.6997074696275535e-05,
      "longitude_deg": -95.49129083773295,
      "height_km": 574.6160158063341,
      "semi_major_axis_km": 6950.227727245923,
      "eccentricity": 0.00024094,
      "inclination_deg": 69.9974,
      "raan_deg": 291.9233,
      "arg_perigee_deg": 266.6233,
      "mean_anomaly_deg": 93.4651,
      "mean_motion_rev_day": 14.98318735
    },
    {
      "epoch": "2026-03-30T19:42:25.215552Z",
      "apogee_km": 573.7649888102942,
      "perigee_km": 570.4067801169804,
      "latitude_deg": 3.552356787579073e-05,
      "longitude_deg": 167.43748569052585,
      "height_km": 574.6083718728416,
      "semi_major_axis_km": 6950.2228844636375,
      "eccentricity": 0.00024159,
      "inclination_deg": 69.9974,
      "raan_deg": 291.2499,
      "arg_perigee_deg": 266.7285,
      "mean_anomaly_deg": 93.3598,
      "mean_motion_rev_day": 14.98320301
    },
    {
      "epoch": "2026-03-31T21:20:32.134848Z",
      "apogee_km": 573.7823190380732,
      "perigee_km": 570.2252369878861,
      "latitude_deg": -2.9461213779531405e-05,
      "longitude_deg": 139.16103069079057,
      "height_km": 574.5368827543797,
      "semi_major_axis_km": 6950.140778012979,
      "eccentricity": 0.0002559,
      "inclination_deg": 69.9969,
      "raan_deg": 288.5551,
      "arg_perigee_deg": 266.5739,
      "mean_anomaly_deg": 93.5127,
      "mean_motion_rev_day": 14.98346852
    },
    {
      "epoch": "2026-04-01T19:46:27.433632Z",
      "apogee_km": 574.0667863934905,
      "perigee_km": 570.1121075451647,
      "latitude_deg": -2.266380881723804e-05,
      "longitude_deg": 159.40287209120052,
      "height_km": 574.5938932781811,
      "semi_major_axis_km": 6950.226446969327,
      "eccentricity": 0.0002845,
      "inclination_deg": 69.9965,
      "raan_deg": 286.1986,
      "arg_perigee_deg": 267.7568,
      "mean_anomaly_deg": 92.3265,
      "mean_motion_rev_day": 14.98319149
    },
    {
      "epoch": "2026-04-02T19:48:28.918080Z",
      "apogee_km": 573.4613713823028,
      "perigee_km": 570.6646109058665,
      "latitude_deg": -2.8436490549832088e-06,
      "longitude_deg": 155.3884639982172,
      "height_km": 574.9248321799741,
      "semi_major_axis_km": 6950.199991144084,
      "eccentricity": 0.0002012,
      "inclination_deg": 70.0002,
      "raan_deg": 283.6774,
      "arg_perigee_deg": 251.8559,
      "mean_anomaly_deg": 108.2381,
      "mean_motion_rev_day": 14.98327704
    },
    {
      "epoch": "2026-04-02T21:24:36.843840Z",
      "apogee_km": 573.4397369712779,
      "perigee_km": 570.68509493476,
      "latitude_deg": 4.556400221789174e-05,
      "longitude_deg": 131.1208574866562,
      "height_km": 574.6496644523955,
      "semi_major_axis_km": 6950.199415953019,
      "eccentricity": 0.00019817,
      "inclination_deg": 69.9992,
      "raan_deg": 283.5086,
      "arg_perigee_deg": 263.2902,
      "mean_anomaly_deg": 96.8032,
      "mean_motion_rev_day": 14.9832789
    },
    {
      "epoch": "2026-04-03T18:14:21.837408Z",
      "apogee_km": 574.0123851400822,
      "perigee_km": 570.1605712884566,
      "latitude_deg": -1.6584949510853662e-06,
      "longitude_deg": 175.6374438049226,
      "height_km": 574.6243362715437,
      "semi_major_axis_km": 6950.22347821427,
      "eccentricity": 0.0002771,
      "inclination_deg": 69.9984,
      "raan_deg": 281.3181,
      "arg_perigee_deg": 266.7035,
      "mean_anomaly_deg": 93.3807,
      "mean_motion_rev_day": 14.98320109
    },
    {
      "epoch": "2026-04-04T19:52:30.868320Z",
      "apogee_km": 573.7272099309812,
      "perigee_km": 570.3730496221497,
      "latitude_deg": -3.992038194440387e-05,
      "longitude_deg": 147.35357373143006,
      "height_km": 574.611584367886,
      "semi_major_axis_km": 6950.187129776565,
      "eccentricity": 0.0002413,
      "inclination_deg": 69.9985,
      "raan_deg": 278.6247,
      "arg_perigee_deg": 265.3934,
      "mean_anomaly_deg": 94.6949,
      "mean_motion_rev_day": 14.98331863
    },
    {
      "epoch": "2026-04-05T13:29:59.250912Z",
      "apogee_km": 573.7176275497022,
      "perigee_km": 570.347768269975,
      "latitude_deg": 4.0453148653275596e-05,
      "longitude_deg": -119.59007372172556,
      "height_km": 574.6239857357793,
      "semi_major_axis_km": 6950.169697909839,
      "eccentricity": 0.00024243,
      "inclination_deg": 69.9986,
      "raan_deg": 276.7731,
      "arg_perigee_deg": 264.397,
      "mean_anomaly_deg": 95.6913,
      "mean_motion_rev_day": 14.983375
    },
    {
      "epoch": "2026-04-05T18:18:23.397984Z",
      "apogee_km": 573.7317239146778,
      "perigee_km": 570.3289219933604,
      "latitude_deg": 5.8814654123298526e-05,
      "longitude_deg": 167.60661530333797,
      "height_km": 574.5900060461395,
      "semi_major_axis_km": 6950.167322954019,
      "eccentricity": 0.0002448,
      "inclination_deg": 69.9985,
      "raan_deg": 276.2678,
      "arg_perigee_deg": 265.5204,
      "mean_anomaly_deg": 94.5676,
      "mean_motion_rev_day": 14.98338268
    },
    {
      "epoch": "2026-04-05T21:30:39.399840Z",
      "apogee_km": 573.7165664501708,
      "perigee_km": 570.3396202346175,
      "latitude_deg": 5.912961086301809e-05,
      "longitude_deg": 119.0716388999754,
      "height_km": 574.576606028363,
      "semi_major_axis_km": 6950.165093342394,
      "eccentricity": 0.00024294,
      "inclination_deg": 69.9985,
      "raan_deg": 275.9311,
      "arg_perigee_deg": 265.8655,
      "mean_anomaly_deg": 94.2227,
      "mean_motion_rev_day": 14.98338989
    },
    {
      "epoch": "2026-04-07T11:57:52.486560Z",
      "apogee_km": 573.691783463205,
      "perigee_km": 570.3732165303463,
      "latitude_deg": -1.3175344948551014e-05,
      "longitude_deg": -103.35295408602252,
      "height_km": 574.5758900807784,
      "semi_major_axis_km": 6950.169499996776,
      "eccentricity": 0.00023874,
      "inclination_deg": 69.9987,
      "raan_deg": 271.8903,
      "arg_perigee_deg": 265.9691,
      "mean_anomaly_deg": 94.1195,
      "mean_motion_rev_day": 14.98337564
    },
    {
      "epoch": "2026-04-07T18:22:24.765024Z",
      "apogee_km": 573.7335307169951,
      "perigee_km": 570.340455773493,
      "latitude_deg": 5.094323894985172e-05,
      "longitude_deg": 159.57656785169746,
      "height_km": 574.520576772542,
      "semi_major_axis_km": 6950.173993245244,
      "eccentricity": 0.0002441,
      "inclination_deg": 69.9986,
      "raan_deg": 271.2175,
      "arg_perigee_deg": 268.0816,
      "mean_anomaly_deg": 92.0064,
      "mean_motion_rev_day": 14.98336111
    },
    {
      "epoch": "2026-04-08T13:36:01.075104Z",
      "apogee_km": 573.669429422308,
      "perigee_km": 570.3461481900922,
      "latitude_deg": -5.113676632768002e-05,
      "longitude_deg": -131.6338782185177,
      "height_km": 574.6555751700614,
      "semi_major_axis_km": 6950.144788806199,
      "eccentricity": 0.00023908,
      "inclination_deg": 69.9994,
      "raan_deg": 269.198,
      "arg_perigee_deg": 262.358,
      "mean_anomaly_deg": 97.7307,
      "mean_motion_rev_day": 14.98345555
    },
    {
      "epoch": "2026-04-09T18:26:26.416320Z",
      "apogee_km": 573.6864357174154,
      "perigee_km": 570.4003904181172,
      "latitude_deg": -1.122455878589495e-05,
      "longitude_deg": 151.54551224220882,
      "height_km": 574.4575713116461,
      "semi_major_axis_km": 6950.1804130677665,
      "eccentricity": 0.0002364,
      "inclination_deg": 69.9987,
      "raan_deg": 266.1674,
      "arg_perigee_deg": 270.4377,
      "mean_anomaly_deg": 89.6511,
      "mean_motion_rev_day": 14.98334035
    },
    {
      "epoch": "2026-04-10T04:03:14.793408Z",
      "apogee_km": 573.7479445352537,
      "perigee_km": 570.3498596440049,
      "latitude_deg": 1.1525528727007545e-05,
      "longitude_deg": 5.939138328161707,
      "height_km": 574.469480646762,
      "semi_major_axis_km": 6950.185902089629,
      "eccentricity": 0.00024446,
      "inclination_deg": 69.9988,
      "raan_deg": 265.1574,
      "arg_perigee_deg": 270.2098,
      "mean_anomaly_deg": 89.8781,
      "mean_motion_rev_day": 14.9833226
    }
  ]
}